TOMORROW-S2             
1 60485U 24149T   26068.75188364  .00008133  00000+0  27683-3 0  9990
2 60485  97.3857 150.0385 0001648 234.3331 125.7757 15.30674935 86869
STARLINK-34665          
1 65089U 25167M   26068.28139008  .00012695  00000+0  43997-3 0  9999
2 65089  53.1613  28.8152 0001062  70.3211 289.7905 15.30202424 33412
